IRIDIUM 63              
1 25286U 98021B   25209.62422963  .00000305  00000+0  97043-4 0  9999
2 25286  86.3940  64.7411 0002243  91.6573 268.4881 14.36569127429792
IRIDIUM 69              
1 25319U 98026A   25209.57913232  .00000417  00000+0  12351-3 0  9991
2 25319  86.3937  77.9271 0000770 181.0646 179.0552 14.40999336429025
IRIDIUM 71              
1 25320U 98026B   25209.58058119  .00000365  00000+0  10691-3 0  9995
2 25320  86.3934  72.6089 0001542  19.8640 340.2619 14.41184438429557
IRIDIUM 73              
1 25344U 98032C   25209.55624209  .00000514  00000+0  12290-3 0  9997
2 25344  86.4401  29.2371 0001946 106.9020 253.2399 14.51749952436569
IRIDIUM 82              
1 25467U 98051A   25209.60795438  .00023532  00000+0  63927-3 0  9991
2 25467  86.3634  89.3454 0084245 137.5359 223.2451 15.33825199430300
